[{"OBJECT_NAME":"COSMOS 2547","OBJECT_ID":"2020-075A","EPOCH":"2026-03-04T18:26:05.524800","MEAN_MOTION":2.13100113,"ECCENTRICITY":0.0006753,"INCLINATION":64.5996,"RA_OF_ASC_NODE":195.957,"ARG_OF_PERICENTER":229.6375,"MEAN_ANOMALY":130.2687,"EPHEMERIS_TYPE":0,"CLASSIFICATION_TYPE":"U","NORAD_CAT_ID":46805,"ELEMENT_SET_NO":999,"REV_AT_EPOCH":4168,"BSTAR":0,"MEAN_MOTION_DOT":8.0e-8,"MEAN_MOTION_DDOT":0},{"OBJECT_NAME":"GPS BIII-4","OBJECT_ID":"2020-078A","EPOCH":"2026-03-04T23:55:16.078368","MEAN_MOTION":2.00565549,"ECCENTRICITY":0.00682418,"INCLINATION":54.0015,"RA_OF_ASC_NODE":215.0016,"ARG_OF_PERICENTER":204.3193,"MEAN_ANOMALY":105.9697,"EPHEMERIS_TYPE":0,"CLASSIFICATION_TYPE":"U","NORAD_CAT_ID":46826,"ELEMENT_SET_NO":999,"REV_AT_EPOCH":3941,"BSTAR":0,"MEAN_MOTION_DOT":3.0e-8,"MEAN_MOTION_DDOT":0},{"OBJECT_NAME":"GSAT0223 (GALILEO 27)","OBJECT_ID":"2021-116A","EPOCH":"2026-02-17T00:57:26.434656","MEAN_MOTION":1.70475508,"ECCENTRICITY":0.00028659,"INCLINATION":57.2005,"RA_OF_ASC_NODE":344.9238,"ARG_OF_PERICENTER":278.195,"MEAN_ANOMALY":264.6358,"EPHEMERIS_TYPE":0,"CLASSIFICATION_TYPE":"U","NORAD_CAT_ID":49809,"ELEMENT_SET_NO":999,"REV_AT_EPOCH":2613,"BSTAR":0,"MEAN_MOTION_DOT":-7.8e-7,"MEAN_MOTION_DDOT":0},{"OBJECT_NAME":"GSAT0224 (GALILEO 28)","OBJECT_ID":"2021-116B","EPOCH":"2026-02-23T21:29:03.517440","MEAN_MOTION":1.70475193,"ECCENTRICITY":0.00021827,"INCLINATION":57.1984,"RA_OF_ASC_NODE":344.7369,"ARG_OF_PERICENTER":291.9502,"MEAN_ANOMALY":250.7131,"EPHEMERIS_TYPE":0,"CLASSIFICATION_TYPE":"U","NORAD_CAT_ID":49810,"ELEMENT_SET_NO":999,"REV_AT_EPOCH":2627,"BSTAR":0,"MEAN_MOTION_DOT":-8.8e-7,"MEAN_MOTION_DDOT":0},{"OBJECT_NAME":"GOES 18","OBJECT_ID":"2022-021A","EPOCH":"2026-03-05T06:30:00.919872","MEAN_MOTION":1.00272473,"ECCENTRICITY":7.073e-5,"INCLINATION":0.0324,"RA_OF_ASC_NODE":75.9838,"ARG_OF_PERICENTER":326.9206,"MEAN_ANOMALY":80.5919,"EPHEMERIS_TYPE":0,"CLASSIFICATION_TYPE":"U","NORAD_CAT_ID":51850,"ELEMENT_SET_NO":999,"REV_AT_EPOCH":555,"BSTAR":0,"MEAN_MOTION_DOT":8.8e-7,"MEAN_MOTION_DDOT":0},{"OBJECT_NAME":"COSMOS 2557 (706K)","OBJECT_ID":"2022-075A","EPOCH":"2026-03-04T22:23:49.965216","MEAN_MOTION":2.13101614,"ECCENTRICITY":0.00115759,"INCLINATION":64.3588,"RA_OF_ASC_NODE":318.1599,"ARG_OF_PERICENTER":283.5582,"MEAN_ANOMALY":76.3723,"EPHEMERIS_TYPE":0,"CLASSIFICATION_TYPE":"U","NORAD_CAT_ID":52984,"ELEMENT_SET_NO":999,"REV_AT_EPOCH":2849,"BSTAR":0,"MEAN_MOTION_DOT":-5.7e-7,"MEAN_MOTION_DDOT":0},{"OBJECT_NAME":"METEOSAT-12 (MTG-I1)","OBJECT_ID":"2022-170C","EPOCH":"2026-03-05T05:26:14.535168","MEAN_MOTION":1.00269628,"ECCENTRICITY":0.00020952,"INCLINATION":0.702,"RA_OF_ASC_NODE":21.5116,"ARG_OF_PERICENTER":286.3388,"MEAN_ANOMALY":296.3697,"EPHEMERIS_TYPE":0,"CLASSIFICATION_TYPE":"U","NORAD_CAT_ID":54743,"ELEMENT_SET_NO":999,"REV_AT_EPOCH":1193,"BSTAR":0,"MEAN_MOTION_DOT":-1.6e-7,"MEAN_MOTION_DDOT":0},{"OBJECT_NAME":"METEOR-M2 3","OBJECT_ID":"2023-091A","EPOCH":"2026-03-05T07:41:55.212288","MEAN_MOTION":14.24037134,"ECCENTRICITY":0.00050646,"INCLINATION":98.6223,"RA_OF_ASC_NODE":121.3627,"ARG_OF_PERICENTER":109.2244,"MEAN_ANOMALY":250.9484,"EPHEMERIS_TYPE":0,"CLASSIFICATION_TYPE":"U","NORAD_CAT_ID":57166,"ELEMENT_SET_NO":999,"REV_AT_EPOCH":13973,"BSTAR":2.811943e-5,"MEAN_MOTION_DOT":2.1e-7,"MEAN_MOTION_DDOT":0},{"OBJECT_NAME":"COSMOS 2569 (703K)","OBJECT_ID":"2023-114A","EPOCH":"2026-03-04T14:37:03.256608","MEAN_MOTION":2.13103963,"ECCENTRICITY":0.00128986,"INCLINATION":65.242,"RA_OF_ASC_NODE":76.146,"ARG_OF_PERICENTER":291.625,"MEAN_ANOMALY":68.2783,"EPHEMERIS_TYPE":0,"CLASSIFICATION_TYPE":"U","NORAD_CAT_ID":57517,"ELEMENT_SET_NO":999,"REV_AT_EPOCH":2003,"BSTAR":0,"MEAN_MOTION_DOT":1.1e-7,"MEAN_MOTION_DDOT":0},{"OBJECT_NAME":"METEOR-M2 4","OBJECT_ID":"2024-039A","EPOCH":"2026-03-05T06:54:33.759936","MEAN_MOTION":14.22416277,"ECCENTRICITY":0.00080915,"INCLINATION":98.69,"RA_OF_ASC_NODE":24.9578,"ARG_OF_PERICENTER":107.3344,"MEAN_ANOMALY":252.8719,"EPHEMERIS_TYPE":0,"CLASSIFICATION_TYPE":"U","NORAD_CAT_ID":59051,"ELEMENT_SET_NO":999,"REV_AT_EPOCH":10449,"BSTAR":3.7914668e-5,"MEAN_MOTION_DOT":4.1e-7,"MEAN_MOTION_DDOT":0},{"OBJECT_NAME":"GSAT0225 (GALILEO 29)","OBJECT_ID":"2024-079A","EPOCH":"2026-03-04T09:49:38.743680","MEAN_MOTION":1.70474922,"ECCENTRICITY":0.0002567,"INCLINATION":55.0499,"RA_OF_ASC_NODE":104.0071,"ARG_OF_PERICENTER":257.4234,"MEAN_ANOMALY":103.5813,"EPHEMERIS_TYPE":0,"CLASSIFICATION_TYPE":"U","NORAD_CAT_ID":59598,"ELEMENT_SET_NO":999,"REV_AT_EPOCH":1153,"BSTAR":0,"MEAN_MOTION_DOT":1.0e-7,"MEAN_MOTION_DDOT":0},{"OBJECT_NAME":"GSAT0227 (GALILEO 30)","OBJECT_ID":"2024-079C","EPOCH":"2026-03-03T10:02:13.643808","MEAN_MOTION":1.70474834,"ECCENTRICITY":3.59e-5,"INCLINATION":55.044,"RA_OF_ASC_NODE":104.0338,"ARG_OF_PERICENTER":68.5105,"MEAN_ANOMALY":291.5792,"EPHEMERIS_TYPE":0,"CLASSIFICATION_TYPE":"U","NORAD_CAT_ID":59600,"ELEMENT_SET_NO":999,"REV_AT_EPOCH":1156,"BSTAR":0,"MEAN_MOTION_DOT":1.2e-7,"MEAN_MOTION_DDOT":0},{"OBJECT_NAME":"GSAT0232 (GALILEO 32)","OBJECT_ID":"2024-167A","EPOCH":"2026-02-17T15:52:34.088160","MEAN_MOTION":1.70443939,"ECCENTRICITY":0.00036004,"INCLINATION":55.2225,"RA_OF_ASC_NODE":224.5881,"ARG_OF_PERICENTER":296.6314,"MEAN_ANOMALY":116.1306,"EPHEMERIS_TYPE":0,"CLASSIFICATION_TYPE":"U","NORAD_CAT_ID":61182,"ELEMENT_SET_NO":999,"REV_AT_EPOCH":826,"BSTAR":0,"MEAN_MOTION_DOT":6.9e-7,"MEAN_MOTION_DDOT":0},{"OBJECT_NAME":"GSAT0226 (GALILEO 31)","OBJECT_ID":"2024-167B","EPOCH":"2026-03-04T02:12:55.359360","MEAN_MOTION":1.70474186,"ECCENTRICITY":0.00015885,"INCLINATION":55.2176,"RA_OF_ASC_NODE":224.2005,"ARG_OF_PERICENTER":128.6581,"MEAN_ANOMALY":232.0353,"EPHEMERIS_TYPE":0,"CLASSIFICATION_TYPE":"U","NORAD_CAT_ID":61183,"ELEMENT_SET_NO":999,"REV_AT_EPOCH":906,"BSTAR":0,"MEAN_MOTION_DOT":1.1e-7,"MEAN_MOTION_DDOT":0},{"OBJECT_NAME":"GSAT0233 (GALILEO 33)","OBJECT_ID":"2025-302A","EPOCH":"2026-02-13T12:00:00.000000","MEAN_MOTION":1.70474578,"ECCENTRICITY":0.00030114,"INCLINATION":54.3935,"RA_OF_ASC_NODE":105.2952,"ARG_OF_PERICENTER":207.0582,"MEAN_ANOMALY":359.4109,"EPHEMERIS_TYPE":0,"CLASSIFICATION_TYPE":"U","NORAD_CAT_ID":67160,"ELEMENT_SET_NO":999,"REV_AT_EPOCH":2,"BSTAR":0,"MEAN_MOTION_DOT":-8.0e-8,"MEAN_MOTION_DDOT":0},{"OBJECT_NAME":"GSAT0234 (GALILEO 34)","OBJECT_ID":"2025-302C","EPOCH":"2026-02-13T12:00:00.000000","MEAN_MOTION":1.70475065,"ECCENTRICITY":0.00030814,"INCLINATION":54.3967,"RA_OF_ASC_NODE":105.2938,"ARG_OF_PERICENTER":266.8423,"MEAN_ANOMALY":119.7309,"EPHEMERIS_TYPE":0,"CLASSIFICATION_TYPE":"U","NORAD_CAT_ID":67162,"ELEMENT_SET_NO":999,"REV_AT_EPOCH":12,"BSTAR":0,"MEAN_MOTION_DOT":-8.0e-8,"MEAN_MOTION_DDOT":0}]
